STARLINK-35723          
1 66211U 25244F   25322.16670139  .00017329  00000+0  31887-3 0  9991
2 66211  53.1605  31.9830 0001098  81.6730  63.1790 15.49314547  4312
STARLINK-35710          
1 66212U 25244G   25322.16670139 -.00018300  00000+0 -32168-3 0  9997
2 66212  53.1605  31.9747 0001269  86.2572  62.4405 15.49313962  4398
STARLINK-34204          
1 66213U 25244H   25322.16670139 -.00008198  00000+0 -13939-3 0  9997
2 66213  53.1606  31.9793 0001046  78.5107  68.2580 15.49329562  4584
STARLINK-35714          
1 66214U 25244J   25322.16670139 -.00015562  00000+0 -27226-3 0  9995
2 66214  53.1606  31.9587 0001276  81.7287  74.6353 15.49313241  4267
STARLINK-35712          
1 66215U 25244K   25322.16670139 -.00019061  00000+0 -33538-3 0  9997
2 66215  53.1606  31.9508 0000966  78.2893  81.9011 15.49318241  4267
STARLINK-35709          
1 66216U 25244L   25322.16670139 -.00033703  00000+0 -60018-3 0  9990
2 66216  53.1605  31.9711 0000951  72.7425  77.8650 15.49325420  4267
STARLINK-35700          
1 66217U 25244M   25322.16670139 -.00026803  00000+0 -47529-3 0  9996
2 66217  53.1606  31.9671 0000962  79.1053  73.4174 15.49322284  4262
STARLINK-35722          
1 66218U 25244N   25322.16670139 -.00022659  00000+0 -40036-3 0  9998
2 66218  53.1606  31.9631 0001046  74.3219  80.1145 15.49321105  4268
STARLINK-35737          
1 66219U 25244P   25322.16670139 -.00019586  00000+0 -34488-3 0  9998
2 66219  53.1606  31.9553 0001001  76.0545  82.2217 15.49317164  4425
STARLINK-35677          
1 66220U 25244Q   25322.16670139 -.00015951  00000+0 -27928-3 0  9993
2 66220  53.1606  31.9475 0001025  74.8231  87.2888 15.49313851  4264
STARLINK-35704          
1 66221U 25244R   25322.16670139 -.00026584  00000+0 -47138-3 0  9993
2 66221  53.1607  31.9430 0001126  68.2898  95.7423 15.49318171  4264
STARLINK-35666          
1 66222U 25244S   25322.16670139 -.00019847  00000+0 -35011-3 0  9995
2 66222  53.1607  31.9349 0001064 116.5893  51.4123 15.49275667  4377
