CCSDS_OMM_VERS = 2.0
CREATION_DATE  = 
ORIGINATOR     = 

OBJECT_NAME    = STARLINK-35723
OBJECT_ID      = 2025-244F
CENTER_NAME    = EARTH
REF_FRAME      = TEME
TIME_SYSTEM    = UTC
MEAN_ELEMENT_THEORY = SGP/SGP4

EPOCH          = 2025-11-18T04:00:03.000096
MEAN_MOTION    = 15.49314547
ECCENTRICITY   = .0001098
INCLINATION    = 53.1605
RA_OF_ASC_NODE = 31.9830
ARG_OF_PERICENTER = 81.6730
MEAN_ANOMALY   = 63.1790

EPHEMERIS_TYPE = 0
CLASSIFICATION_TYPE = U
NORAD_CAT_ID   = 66211
ELEMENT_SET_NO = 999
REV_AT_EPOCH   = 431
BSTAR          = .31887E-3
MEAN_MOTION_DOT = .17329E-3
MEAN_MOTION_DDOT = 0

CCSDS_OMM_VERS = 2.0
CREATION_DATE  = 
ORIGINATOR     = 

OBJECT_NAME    = STARLINK-35710
OBJECT_ID      = 2025-244G
CENTER_NAME    = EARTH
REF_FRAME      = TEME
TIME_SYSTEM    = UTC
MEAN_ELEMENT_THEORY = SGP/SGP4

EPOCH          = 2025-11-18T04:00:03.000096
MEAN_MOTION    = 15.49313962
ECCENTRICITY   = .0001269
INCLINATION    = 53.1605
RA_OF_ASC_NODE = 31.9747
ARG_OF_PERICENTER = 86.2572
MEAN_ANOMALY   = 62.4405

EPHEMERIS_TYPE = 0
CLASSIFICATION_TYPE = U
NORAD_CAT_ID   = 66212
ELEMENT_SET_NO = 999
REV_AT_EPOCH   = 439
BSTAR          = -.32168E-3
MEAN_MOTION_DOT = -.183E-3
MEAN_MOTION_DDOT = 0

CCSDS_OMM_VERS = 2.0
CREATION_DATE  = 
ORIGINATOR     = 

OBJECT_NAME    = STARLINK-34204
OBJECT_ID      = 2025-244H
CENTER_NAME    = EARTH
REF_FRAME      = TEME
TIME_SYSTEM    = UTC
MEAN_ELEMENT_THEORY = SGP/SGP4

EPOCH          = 2025-11-18T04:00:03.000096
MEAN_MOTION    = 15.49329562
ECCENTRICITY   = .0001046
INCLINATION    = 53.1606
RA_OF_ASC_NODE = 31.9793
ARG_OF_PERICENTER = 78.5107
MEAN_ANOMALY   = 68.2580

EPHEMERIS_TYPE = 0
CLASSIFICATION_TYPE = U
NORAD_CAT_ID   = 66213
ELEMENT_SET_NO = 999
REV_AT_EPOCH   = 458
BSTAR          = -.13939E-3
MEAN_MOTION_DOT = -.8198E-4
MEAN_MOTION_DDOT = 0

CCSDS_OMM_VERS = 2.0
CREATION_DATE  = 
ORIGINATOR     = 

OBJECT_NAME    = STARLINK-35714
OBJECT_ID      = 2025-244J
CENTER_NAME    = EARTH
REF_FRAME      = TEME
TIME_SYSTEM    = UTC
MEAN_ELEMENT_THEORY = SGP/SGP4

EPOCH          = 2025-11-18T04:00:03.000096
MEAN_MOTION    = 15.49313241
ECCENTRICITY   = .0001276
INCLINATION    = 53.1606
RA_OF_ASC_NODE = 31.9587
ARG_OF_PERICENTER = 81.7287
MEAN_ANOMALY   = 74.6353

EPHEMERIS_TYPE = 0
CLASSIFICATION_TYPE = U
NORAD_CAT_ID   = 66214
ELEMENT_SET_NO = 999
REV_AT_EPOCH   = 426
BSTAR          = -.27226E-3
MEAN_MOTION_DOT = -.15562E-3
MEAN_MOTION_DDOT = 0

CCSDS_OMM_VERS = 2.0
CREATION_DATE  = 
ORIGINATOR     = 

OBJECT_NAME    = STARLINK-35712
OBJECT_ID      = 2025-244K
CENTER_NAME    = EARTH
REF_FRAME      = TEME
TIME_SYSTEM    = UTC
MEAN_ELEMENT_THEORY = SGP/SGP4

EPOCH          = 2025-11-18T04:00:03.000096
MEAN_MOTION    = 15.49318241
ECCENTRICITY   = .0000966
INCLINATION    = 53.1606
RA_OF_ASC_NODE = 31.9508
ARG_OF_PERICENTER = 78.2893
MEAN_ANOMALY   = 81.9011

EPHEMERIS_TYPE = 0
CLASSIFICATION_TYPE = U
NORAD_CAT_ID   = 66215
ELEMENT_SET_NO = 999
REV_AT_EPOCH   = 426
BSTAR          = -.33538E-3
MEAN_MOTION_DOT = -.19061E-3
MEAN_MOTION_DDOT = 0

CCSDS_OMM_VERS = 2.0
CREATION_DATE  = 
ORIGINATOR     = 

OBJECT_NAME    = STARLINK-35709
OBJECT_ID      = 2025-244L
CENTER_NAME    = EARTH
REF_FRAME      = TEME
TIME_SYSTEM    = UTC
MEAN_ELEMENT_THEORY = SGP/SGP4

EPOCH          = 2025-11-18T04:00:03.000096
MEAN_MOTION    = 15.49325420
ECCENTRICITY   = .0000951
INCLINATION    = 53.1605
RA_OF_ASC_NODE = 31.9711
ARG_OF_PERICENTER = 72.7425
MEAN_ANOMALY   = 77.8650

EPHEMERIS_TYPE = 0
CLASSIFICATION_TYPE = U
NORAD_CAT_ID   = 66216
ELEMENT_SET_NO = 999
REV_AT_EPOCH   = 426
BSTAR          = -.60018E-3
MEAN_MOTION_DOT = -.33703E-3
MEAN_MOTION_DDOT = 0

CCSDS_OMM_VERS = 2.0
CREATION_DATE  = 
ORIGINATOR     = 

OBJECT_NAME    = STARLINK-35700
OBJECT_ID      = 2025-244M
CENTER_NAME    = EARTH
REF_FRAME      = TEME
TIME_SYSTEM    = UTC
MEAN_ELEMENT_THEORY = SGP/SGP4

EPOCH          = 2025-11-18T04:00:03.000096
MEAN_MOTION    = 15.49322284
ECCENTRICITY   = .0000962
INCLINATION    = 53.1606
RA_OF_ASC_NODE = 31.9671
ARG_OF_PERICENTER = 79.1053
MEAN_ANOMALY   = 73.4174

EPHEMERIS_TYPE = 0
CLASSIFICATION_TYPE = U
NORAD_CAT_ID   = 66217
ELEMENT_SET_NO = 999
REV_AT_EPOCH   = 426
BSTAR          = -.47529E-3
MEAN_MOTION_DOT = -.26803E-3
MEAN_MOTION_DDOT = 0

CCSDS_OMM_VERS = 2.0
CREATION_DATE  = 
ORIGINATOR     = 

OBJECT_NAME    = STARLINK-35722
OBJECT_ID      = 2025-244N
CENTER_NAME    = EARTH
REF_FRAME      = TEME
TIME_SYSTEM    = UTC
MEAN_ELEMENT_THEORY = SGP/SGP4

EPOCH          = 2025-11-18T04:00:03.000096
MEAN_MOTION    = 15.49321105
ECCENTRICITY   = .0001046
INCLINATION    = 53.1606
RA_OF_ASC_NODE = 31.9631
ARG_OF_PERICENTER = 74.3219
MEAN_ANOMALY   = 80.1145

EPHEMERIS_TYPE = 0
CLASSIFICATION_TYPE = U
NORAD_CAT_ID   = 66218
ELEMENT_SET_NO = 999
REV_AT_EPOCH   = 426
BSTAR          = -.40036E-3
MEAN_MOTION_DOT = -.22659E-3
MEAN_MOTION_DDOT = 0

CCSDS_OMM_VERS = 2.0
CREATION_DATE  = 
ORIGINATOR     = 

OBJECT_NAME    = STARLINK-35737
OBJECT_ID      = 2025-244P
CENTER_NAME    = EARTH
REF_FRAME      = TEME
TIME_SYSTEM    = UTC
MEAN_ELEMENT_THEORY = SGP/SGP4

EPOCH          = 2025-11-18T04:00:03.000096
MEAN_MOTION    = 15.49317164
ECCENTRICITY   = .0001001
INCLINATION    = 53.1606
RA_OF_ASC_NODE = 31.9553
ARG_OF_PERICENTER = 76.0545
MEAN_ANOMALY   = 82.2217

EPHEMERIS_TYPE = 0
CLASSIFICATION_TYPE = U
NORAD_CAT_ID   = 66219
ELEMENT_SET_NO = 999
REV_AT_EPOCH   = 442
BSTAR          = -.34488E-3
MEAN_MOTION_DOT = -.19586E-3
MEAN_MOTION_DDOT = 0

CCSDS_OMM_VERS = 2.0
CREATION_DATE  = 
ORIGINATOR     = 

OBJECT_NAME    = STARLINK-35677
OBJECT_ID      = 2025-244Q
CENTER_NAME    = EARTH
REF_FRAME      = TEME
TIME_SYSTEM    = UTC
MEAN_ELEMENT_THEORY = SGP/SGP4

EPOCH          = 2025-11-18T04:00:03.000096
MEAN_MOTION    = 15.49313851
ECCENTRICITY   = .0001025
INCLINATION    = 53.1606
RA_OF_ASC_NODE = 31.9475
ARG_OF_PERICENTER = 74.8231
MEAN_ANOMALY   = 87.2888

EPHEMERIS_TYPE = 0
CLASSIFICATION_TYPE = U
NORAD_CAT_ID   = 66220
ELEMENT_SET_NO = 999
REV_AT_EPOCH   = 426
BSTAR          = -.27928E-3
MEAN_MOTION_DOT = -.15951E-3
MEAN_MOTION_DDOT = 0

CCSDS_OMM_VERS = 2.0
CREATION_DATE  = 
ORIGINATOR     = 

OBJECT_NAME    = STARLINK-35704
OBJECT_ID      = 2025-244R
CENTER_NAME    = EARTH
REF_FRAME      = TEME
TIME_SYSTEM    = UTC
MEAN_ELEMENT_THEORY = SGP/SGP4

EPOCH          = 2025-11-18T04:00:03.000096
MEAN_MOTION    = 15.49318171
ECCENTRICITY   = .0001126
INCLINATION    = 53.1607
RA_OF_ASC_NODE = 31.9430
ARG_OF_PERICENTER = 68.2898
MEAN_ANOMALY   = 95.7423

EPHEMERIS_TYPE = 0
CLASSIFICATION_TYPE = U
NORAD_CAT_ID   = 66221
ELEMENT_SET_NO = 999
REV_AT_EPOCH   = 426
BSTAR          = -.47138E-3
MEAN_MOTION_DOT = -.26584E-3
MEAN_MOTION_DDOT = 0

CCSDS_OMM_VERS = 2.0
CREATION_DATE  = 
ORIGINATOR     = 

OBJECT_NAME    = STARLINK-35666
OBJECT_ID      = 2025-244S
CENTER_NAME    = EARTH
REF_FRAME      = TEME
TIME_SYSTEM    = UTC
MEAN_ELEMENT_THEORY = SGP/SGP4

EPOCH          = 2025-11-18T04:00:03.000096
MEAN_MOTION    = 15.49275667
ECCENTRICITY   = .0001064
INCLINATION    = 53.1607
RA_OF_ASC_NODE = 31.9349
ARG_OF_PERICENTER = 116.5893
MEAN_ANOMALY   = 51.4123

EPHEMERIS_TYPE = 0
CLASSIFICATION_TYPE = U
NORAD_CAT_ID   = 66222
ELEMENT_SET_NO = 999
REV_AT_EPOCH   = 437
BSTAR          = -.35011E-3
MEAN_MOTION_DOT = -.19847E-3
MEAN_MOTION_DDOT = 0

